     2              NAVIGATION DATA                         RINEX VERSION / TYPE
CCRINEXN V1.6.0 UX  CDDIS               16-JAN-21 13:26     PGM / RUN BY / DATE 
IGS BROADCAST EPHEMERIS FILE                                COMMENT             
    0.7451D-08 -0.1490D-07 -0.5960D-07  0.1192D-06          ION ALPHA           
    0.8806D+05 -0.4915D+05 -0.1966D+06  0.3277D+06          ION BETA            
    0.931322574615D-09 0.710542735760D-14   147456     2141 DELTA-UTC: A0,A1,T,W
    18                                                      LEAP SECONDS        
                                                            END OF HEADER       
 8 21  1 16 14  0  0.0-0.680936500430D-05-0.136424205266D-11 0.000000000000D+00
    0.260000000000D+02 0.924375000000D+02 0.401838166744D-08 0.281720741355D+01
    0.484660267830D-05 0.609090004582D-02 0.925734639168D-05 0.515378703690D+04
    0.568800000000D+06-0.651925802231D-07-0.213362863667D+01 0.931322574616D-08
    0.968408903512D+00 0.205343750000D+03-0.421149245414D-01-0.779853912617D-08
    0.102147111980D-09 0.100000000000D+01 0.214000000000D+04 0.000000000000D+00
    0.200000000000D+01 0.000000000000D+00 0.512227416039D-08 0.260000000000D+02
    0.561649000000D+06 0.400000000000D+01 0.000000000000D+00 0.000000000000D+00
 9 21  1 16 14  0  0.0-0.313342548907D-03-0.397903932026D-11 0.000000000000D+00
    0.137000000000D+03-0.100312500000D+02 0.467840916023D-08-0.307746396015D+01
   -0.422820448875D-06 0.201170053333D-02 0.110324472189D-04 0.515358681679D+04
    0.568800000000D+06 0.335276126862D-07 0.100821629861D+01 0.167638063431D-07
    0.953024141624D+00 0.164062500000D+03 0.179958637010D+01-0.796533178804D-08
    0.389301930274D-09 0.100000000000D+01 0.214000000000D+04 0.000000000000D+00
    0.200000000000D+01 0.000000000000D+00 0.139698386192D-08 0.137000000000D+03
    0.561618000000D+06 0.400000000000D+01 0.000000000000D+00 0.000000000000D+00
10 21  1 16 14  0  0.0-0.404622405767D-04-0.841282599140D-11 0.000000000000D+00
    0.240000000000D+02-0.110375000000D+03 0.436553898508D-08-0.144030591983D+01
   -0.577606260777D-05 0.640780280810D-02 0.619515776634D-05 0.515367361641D+04
    0.568800000000D+06 0.121071934700D-06-0.245498163812D-01-0.894069671631D-07
    0.968295277202D+00 0.261187500000D+03-0.261657165586D+01-0.801997692137D-08
   -0.105361531588D-09 0.100000000000D+01 0.214000000000D+04 0.000000000000D+00
    0.200000000000D+01 0.000000000000D+00 0.232830643654D-08 0.240000000000D+02
    0.561618000000D+06 0.400000000000D+01 0.000000000000D+00 0.000000000000D+00
11 21  1 16 14  0  0.0-0.514029525220D-04 0.105728759081D-10 0.000000000000D+00
    0.116000000000D+03 0.828750000000D+02 0.568773691707D-08-0.437488284857D-02
    0.425800681114D-05 0.154154845513D-01 0.434182584286D-05 0.515373111343D+04
    0.568800000000D+06-0.113621354103D-06-0.155044669744D+01-0.219792127609D-06
    0.913859543952D+00 0.271437500000D+03 0.208150188407D+01-0.907859244553D-08
    0.290726395636D-09 0.100000000000D+01 0.214000000000D+04 0.000000000000D+00
    0.200000000000D+01 0.630000000000D+02-0.125728547573D-07 0.116000000000D+03
    0.561829000000D+06 0.400000000000D+01 0.000000000000D+00 0.000000000000D+00
12 21  1 16 14  0  0.0 0.121546909213D-04-0.522959453519D-11 0.000000000000D+00
    0.430000000000D+02-0.471875000000D+01 0.425982029576D-08-0.726000712341D+00
   -0.230967998505D-06 0.821757887024D-02 0.924803316593D-05 0.515356822014D+04
    0.568800000000D+06-0.130385160446D-07-0.309259260312D+01 0.119209289551D-06
    0.975594716156D+00 0.209562500000D+03 0.117006504364D+01-0.793925927345D-08
   -0.571452374714D-09 0.100000000000D+01 0.214000000000D+04 0.000000000000D+00
    0.200000000000D+01 0.000000000000D+00-0.125728547573D-07 0.430000000000D+02
    0.561618000000D+06 0.400000000000D+01 0.000000000000D+00 0.000000000000D+00
13 21  1 16 14  0  0.0 0.865408219397D-04 0.420641299570D-11 0.000000000000D+00
    0.490000000000D+02-0.337500000000D+01 0.436196740774D-08 0.211268071624D+01
   -0.203028321266D-06 0.491044588853D-02 0.113137066364D-04 0.515368419075D+04
    0.568800000000D+06-0.502914190292D-07 0.115479758291D+01-0.707805156708D-07
    0.967820103855D+00 0.163500000000D+03 0.104054649850D+01-0.775460872486D-08
    0.463947896721D-09 0.100000000000D+01 0.214000000000D+04 0.000000000000D+00
    0.200000000000D+01 0.000000000000D+00-0.116415321827D-07 0.490000000000D+02
    0.561618000000D+06 0.400000000000D+01 0.000000000000D+00 0.000000000000D+00
14 21  1 16 14  0  0.0 0.862921588123D-04 0.579802872380D-11 0.000000000000D+00
    0.620000000000D+02-0.475000000000D+01 0.446268588878D-08 0.360568523309D+00
   -0.324100255966D-06 0.261017237790D-03 0.957585871220D-05 0.515373687744D+04
    0.568800000000D+06 0.335276126862D-07-0.311765264583D+01-0.447034835815D-07
    0.959099988581D+00 0.197656250000D+03 0.194156590807D+01-0.790282918456D-08
   -0.611454040944D-09 0.100000000000D+01 0.214000000000D+04 0.000000000000D+00
    0.200000000000D+01 0.000000000000D+00-0.232830643654D-08 0.830000000000D+03
    0.561618000000D+06 0.400000000000D+01 0.000000000000D+00 0.000000000000D+00
15 21  1 16 14  0  0.0-0.175936147571D-03 0.261479726760D-11 0.000000000000D+00
    0.860000000000D+02-0.454687500000D+02 0.515842915499D-08 0.176812297696D+01
   -0.237114727497D-05 0.130994851934D-01 0.116787850857D-04 0.515381036568D+04
    0.568800000000D+06-0.312924385071D-06 0.912597559134D+00-0.141561031342D-06
    0.928716907781D+00 0.141031250000D+03 0.966715357861D+00-0.824284334751D-08
    0.323227749447D-09 0.100000000000D+01 0.214000000000D+04 0.000000000000D+00
    0.200000000000D+01 0.000000000000D+00-0.107102096081D-07 0.860000000000D+02
    0.561618000000D+06 0.400000000000D+01 0.000000000000D+00 0.000000000000D+00
16 21  1 16 14  0  0.0-0.265940558165D-03-0.557065504836D-11 0.000000000000D+00
    0.450000000000D+02-0.120312500000D+02 0.405588322953D-08-0.259769026814D+01
   -0.702217221260D-06 0.120588368736D-01 0.971555709839D-05 0.515363515472D+04
    0.568800000000D+06 0.279396772385D-07-0.307380058800D+01-0.169500708580D-06
    0.975737052233D+00 0.200437500000D+03 0.640523090689D+00-0.764210403859D-08
   -0.445018536808D-09 0.100000000000D+01 0.214000000000D+04 0.000000000000D+00
    0.200000000000D+01 0.000000000000D+00-0.107102096081D-07 0.450000000000D+02
    0.567618000000D+06 0.400000000000D+01 0.000000000000D+00 0.000000000000D+00
17 21  1 16 14  0  0.0 0.380972865969D-03 0.488853402203D-11 0.000000000000D+00
    0.270000000000D+02 0.109656250000D+03 0.358407786266D-08 0.267304269436D+01
    0.564754009247D-05 0.135952187702D-01 0.925734639168D-05 0.515353802681D+04
    0.568800000000D+06 0.134110450745D-06-0.205757398928D+01-0.372529029846D-07
    0.982969651923D+00 0.207812500000D+03-0.158707172345D+01-0.742602360940D-08
    0.122505102829D-09 0.100000000000D+01 0.214000000000D+04 0.000000000000D+00
    0.200000000000D+01 0.000000000000D+00-0.111758708954D-07 0.270000000000D+02
    0.561618000000D+06 0.400000000000D+01 0.000000000000D+00 0.000000000000D+00
18 21  1 16 14  0  0.0 0.341647304595D-03 0.272848410532D-11 0.000000000000D+00
    0.157000000000D+03 0.289375000000D+02 0.463412160119D-08 0.717633501184D+00
    0.151805579662D-05 0.119022477884D-02 0.228174030781D-05 0.515369074821D+04
    0.568800000000D+06-0.260770320892D-07-0.104665073924D+01 0.111758708954D-07
    0.966420516962D+00 0.338250000000D+03 0.302911922677D+01-0.840785022071D-08
    0.203222750758D-09 0.100000000000D+01 0.214000000000D+04 0.000000000000D+00
    0.200000000000D+01 0.000000000000D+00-0.838190317154D-08 0.157000000000D+03
    0.561618000000D+06 0.400000000000D+01 0.000000000000D+00 0.000000000000D+00
19 21  1 16 14  0  0.0-0.511505641043D-04 0.500222085975D-11 0.000000000000D+00
    0.330000000000D+02 0.112531250000D+03 0.374622747398D-08-0.103479727580D+01
    0.592879951000D-05 0.899278454017D-02 0.935047864914D-05 0.515362007904D+04
    0.568800000000D+06-0.124797224999D-06-0.201225990282D+01 0.894069671631D-07
    0.981347868255D+00 0.214187500000D+03 0.177056706688D+01-0.785675583685D-08
    0.272154193457D-09 0.100000000000D+01 0.214000000000D+04 0.000000000000D+00
    0.200000000000D+01 0.000000000000D+00-0.153668224812D-07 0.330000000000D+02
    0.561618000000D+06 0.400000000000D+01 0.000000000000D+00 0.000000000000D+00
20 21  1 16 14  0  0.0 0.525139272213D-03-0.227373675443D-12 0.000000000000D+00
    0.107000000000D+03-0.104687500000D+03 0.522450333582D-08-0.813742915087D-02
   -0.547803938389D-05 0.588249845896D-02 0.482983887196D-05 0.515366978264D+04
    0.568800000000D+06 0.106170773506D-06-0.163064927349D+00-0.745058059692D-08
    0.937015456878D+00 0.273468750000D+03 0.282968068027D+01-0.861750181068D-08
   -0.176435920693D-09 0.100000000000D+01 0.214000000000D+04 0.000000000000D+00
    0.200000000000D+01 0.000000000000D+00-0.838190317154D-08 0.107000000000D+03
    0.561618000000D+06 0.400000000000D+01 0.000000000000D+00 0.000000000000D+00
21 21  1 16 14  0  0.0 0.873133540154D-04 0.329691829393D-11 0.000000000000D+00
    0.550000000000D+02 0.454375000000D+02 0.474841207614D-08 0.300614010310D+01
    0.222586095333D-05 0.241976022953D-01 0.139325857163D-05 0.515373748970D+04
    0.568800000000D+06 0.398606061935D-06-0.114058993904D+01 0.286847352982D-06
    0.955615722945D+00 0.345343750000D+03-0.121118486790D+01-0.816605443466D-08
    0.174650132022D-09 0.100000000000D+01 0.214000000000D+04 0.000000000000D+00
    0.200000000000D+01 0.000000000000D+00-0.102445483208D-07 0.550000000000D+02
    0.561979000000D+06 0.400000000000D+01 0.000000000000D+00 0.000000000000D+00
